{
    "links": {
        "self": "http://www.neowsapp.com/rest/v1/neo/3791288?api_key=iIulBulltgU6a56xZRHN4H3l9WmuAYTsLGpBGhQ2"
    },
    "id": "3791288",
    "neo_reference_id": "3791288",
    "name": "(2017 XF2)",
    "designation": "2017 XF2",
    "nasa_jpl_url": "http://ssd.jpl.nasa.gov/sbdb.cgi?sstr=3791288",
    "absolute_magnitude_h": 23.7,
    "estimated_diameter": {
        "kilometers": {
            "estimated_diameter_min": 0.0483676488,
            "estimated_diameter_max": 0.1081533507
        },
        "meters": {
            "estimated_diameter_min": 48.3676488219,
            "estimated_diameter_max": 108.1533506775
        },
        "miles": {
            "estimated_diameter_min": 0.0300542543,
            "estimated_diameter_max": 0.0672033557
        },
        "feet": {
            "estimated_diameter_min": 158.6865169607,
            "estimated_diameter_max": 354.8338390368
        }
    },
    "is_potentially_hazardous_asteroid": false,
    "close_approach_data": [
        {
            "close_approach_date": "1969-08-10",
            "close_approach_date_full": "1969-Aug-10 12:56",
            "epoch_date_close_approach": -12395040000,
            "relative_velocity": {
                "kilometers_per_second": "22.683205179",
                "kilometers_per_hour": "81659.5386444983",
                "miles_per_hour": "50740.0616649662"
            },
            "miss_distance": {
                "astronomical": "0.4878633267",
                "lunar": "189.7788340863",
                "kilometers": "72983314.525434129",
                "miles": "45349728.7512398202"
            },
            "orbiting_body": "Earth"
        },
        {
            "close_approach_date": "2017-11-28",
            "close_approach_date_full": "2017-Nov-28 02:34",
            "epoch_date_close_approach": 1511836440000,
            "relative_velocity": {
                "kilometers_per_second": "9.9217592832",
                "kilometers_per_hour": "35718.3334193426",
                "miles_per_hour": "22193.9833404798"
            },
            "miss_distance": {
                "astronomical": "0.0654676993",
                "lunar": "25.4669350277",
                "kilometers": "9793828.369080491",
                "miles": "6085602.7553971358"
            },
            "orbiting_body": "Earth"
        }
    ],
    "orbital_data": {
        "orbit_id": "2",
        "orbit_determination_date": "2017-12-21 06:28:27",
        "first_observation_date": "2017-12-09",
        "last_observation_date": "2017-12-21",
        "data_arc_in_days": 12,
        "observations_used": 47,
        "orbit_uncertainty": "8",
        "minimum_orbit_intersection": ".00917931",
        "jupiter_tisserand_invariant": "3.846",
        "epoch_osculation": "2458098.5",
        "eccentricity": ".4823025997147918",
        "semi_major_axis": "1.858675043592576",
        "inclination": "1.692915300558056",
        "ascending_node_longitude": "34.41761124294847",
        "orbital_period": "925.5579775686917",
        "perihelion_distance": ".9622312380428727",
        "perihelion_argument": "355.1323316116496",
        "aphelion_distance": "2.75511884914228",
        "perihelion_time": "2458058.684398453643",
        "mean_anomaly": "15.48645995612385",
        "mean_motion": ".3889545644084539",
        "equinox": "J2000",
        "orbit_class": {
            "orbit_class_type": "APO",
            "orbit_class_description": "Near-Earth asteroid orbits which cross the Earth’s orbit similar to that of 1862 Apollo",
            "orbit_class_range": "a (semi-major axis) > 1.0 AU; q (perihelion) < 1.017 AU"
        }
    },
    "is_sentry_object": false
}